[{"OBJECT_NAME":"STARLINK-34274","OBJECT_ID":"2025-126E","EPOCH":"2026-03-09T22:22:13.375200","MEAN_MOTION":14.98340525,"ECCENTRICITY":0.00025982,"INCLINATION":70.0035,"RA_OF_ASC_NODE":34.0316,"ARG_OF_PERICENTER":259.2463,"MEAN_ANOMALY":100.8404,"EPHEMERIS_TYPE":0,"CLASSIFICATION_TYPE":"U","NORAD_CAT_ID":64348,"ELEMENT_SET_NO":999,"REV_AT_EPOCH":4071,"BSTAR":0.00056129808,"MEAN_MOTION_DOT":6.612e-5,"MEAN_MOTION_DDOT":0},{"OBJECT_NAME":"OV1-10 R\/B","OBJECT_ID":"1966-111C","EPOCH":"2026-03-09T17:10:30.494208","MEAN_MOTION":14.85448079,"ECCENTRICITY":0.00582808,"INCLINATION":93.4003,"RA_OF_ASC_NODE":162.682,"ARG_OF_PERICENTER":65.7943,"MEAN_ANOMALY":294.9357,"EPHEMERIS_TYPE":0,"CLASSIFICATION_TYPE":"U","NORAD_CAT_ID":2621,"ELEMENT_SET_NO":999,"REV_AT_EPOCH":15959,"BSTAR":0.00014045213,"MEAN_MOTION_DOT":1.241e-5,"MEAN_MOTION_DDOT":0}]
